H-2A R/B                
1 28932U 06002B   26085.96143090  .00012490  00000+0  61724-3 0  9993
2 28932  98.2441 234.4786 0052383 181.9760 178.1273 15.16791452 97052
RESURS-DK 1             
1 29228U 06021A   26085.39643454  .00002165  00000+0  12896-3 0  9993
2 29228  69.9337 193.8061 0000932  66.6761 293.4503 15.12849732 90058
CZ-4B R/B               
1 29507U 06046C   26085.56147033  .00003935  00000+0  19964-3 0  9990
2 29507  97.5562 130.4242 0032515 206.5182 153.4389 15.17068958 62602
CZ-2C R/B               
1 31114U 07010B   26085.91575123  .00000143  00000+0  84826-4 0  9991
2 31114  98.3997 198.3327 0057974 243.5437 115.9785 14.20252287982165
COSMO-SKYMED 1          
1 31598U 07023A   26085.98104524  .00003062  00000+0  27371-3 0  9995
2 31598  97.8879 277.1541 0000936  94.5406 265.5922 14.96657251 17497
COSMOS 2428             
1 31792U 07029A   26085.95028711 -.00000040  00000+0  42220-5 0  9993
2 31792  70.9438 167.1173 0009678 259.3820 100.6211 14.12948216966538
SL-16 R/B               
1 31793U 07029B   26085.68789542  .00000108  00000+0  80669-4 0  9992
2 31793  70.9751 136.6550 0002619 277.7542 218.1714 14.14842984967777
KORONAS-FOTON           
1 33504U 09003A   26085.94385403  .00013730  00000+0  30198-3 0  9991
2 33504  82.4277 257.9306 0011794  93.8511 266.4085 15.43769277948405
CZ-2C R/B               
1 37731U 11030B   26085.90613068  .00001522  00000+0  19787-3 0  9994
2 37731  97.8572  42.8285 0051177 295.1870 131.2645 14.81281450792647
H-2A R/B                
1 38341U 12025E   26085.72626945  .00003471  00000+0  31579-3 0  9993
2 38341  98.4760  54.1408 0042705 256.5869 103.0588 14.95284150750765
SHIJIAN-16 (SJ-16)      
1 39358U 13057A   26085.99168147  .00001473  00000+0  14632-3 0  9993
2 39358  74.9723 152.3357 0015262  67.6104 292.6699 14.92413612674089
SL-4 R/B                
1 39679U 14021B   26084.79284514  .00017461  00000+0  37834-3 0  9998
2 39679  51.6053 258.6863 0095971 161.6166 198.8326 15.39717175658756
